[{"OBJECT_NAME":"STARLINK-34763","OBJECT_ID":"2025-176J","EPOCH":"2026-03-09T11:58:49.171008","MEAN_MOTION":15.30192058,"ECCENTRICITY":0.00010749,"INCLINATION":53.1597,"RA_OF_ASC_NODE":153.4452,"ARG_OF_PERICENTER":65.1532,"MEAN_ANOMALY":294.958,"EPHEMERIS_TYPE":0,"CLASSIFICATION_TYPE":"U","NORAD_CAT_ID":65206,"ELEMENT_SET_NO":999,"REV_AT_EPOCH":3308,"BSTAR":0.00098796265,"MEAN_MOTION_DOT":0.00029008,"MEAN_MOTION_DDOT":0},{"OBJECT_NAME":"FREGAT DEB","OBJECT_ID":"2011-037CA","EPOCH":"2026-03-09T14:50:33.280800","MEAN_MOTION":11.1879263,"ECCENTRICITY":0.1892682,"INCLINATION":51.5488,"RA_OF_ASC_NODE":250.7678,"ARG_OF_PERICENTER":39.8106,"MEAN_ANOMALY":332.7245,"EPHEMERIS_TYPE":0,"CLASSIFICATION_TYPE":"U","NORAD_CAT_ID":45840,"ELEMENT_SET_NO":999,"REV_AT_EPOCH":22544,"BSTAR":0.0057315,"MEAN_MOTION_DOT":0.00017987,"MEAN_MOTION_DDOT":0}]
